{"fetched_at":"2026-03-30T06:02:59Z","count":15439,"tles":[{"name":"STARLINK-11325 [DTC]","line1":"1 61538U 24184G   26087.87243657 -.00000977  00000+0 -32052-5 0  9998","line2":"2 61538  53.1592 141.4489 0001375  55.1019 305.0128 15.69700518 83437","category":"Starlink"}]}